[{"OBJECT_NAME":"MAROC-TUBSAT","OBJECT_ID":"2001-056D","EPOCH":"2026-03-09T22:30:04.167072","MEAN_MOTION":13.70257966,"ECCENTRICITY":0.00202743,"INCLINATION":99.801,"RA_OF_ASC_NODE":243.9412,"ARG_OF_PERICENTER":39.0163,"MEAN_ANOMALY":116.8621,"EPHEMERIS_TYPE":0,"CLASSIFICATION_TYPE":"U","NORAD_CAT_ID":27004,"ELEMENT_SET_NO":999,"REV_AT_EPOCH":21259,"BSTAR":2.5577729e-5,"MEAN_MOTION_DOT":-2.4e-7,"MEAN_MOTION_DDOT":0},{"OBJECT_NAME":"SL-8 R\/B","OBJECT_ID":"1980-097B","EPOCH":"2026-03-09T15:34:17.862240","MEAN_MOTION":13.77329984,"ECCENTRICITY":0.00498489,"INCLINATION":82.9429,"RA_OF_ASC_NODE":132.7572,"ARG_OF_PERICENTER":142.6456,"MEAN_ANOMALY":217.8184,"EPHEMERIS_TYPE":0,"CLASSIFICATION_TYPE":"U","NORAD_CAT_ID":12088,"ELEMENT_SET_NO":999,"REV_AT_EPOCH":27369,"BSTAR":1.6491794e-5,"MEAN_MOTION_DOT":3.2e-7,"MEAN_MOTION_DDOT":0}]
